{
  "type": "FeatureCollection",
  "features": [
    {
      "type": "Feature",
      "properties": {
        "norad_id": 54259,
        "name": "EUTELSAT 10B",
        "group": "eutelsat",
        "lat": -0.031491597572913275,
        "lon": 42.26387756026431,
        "alt_km": 35788.6951861715,
        "timestamp": "2025-12-10T20:49:52.232437+00:00",
        "meta_object_name": "EUTELSAT 10B",
        "meta_object_id": "2022-157A",
        "meta_epoch": "2025-12-10T06:21:38.695680",
        "meta_mean_motion": 1.00269412,
        "meta_eccentricity": 7.846e-05,
        "meta_inclination": 0.0611,
        "meta_ra_of_asc_node": 99.1185,
        "meta_arg_of_pericenter": 70.4001,
        "meta_mean_anomaly": 15.1099,
        "meta_ephemeris_type": 0,
        "meta_classification_type": "U",
        "meta_norad_cat_id": 54259,
        "meta_element_set_no": 999,
        "meta_rev_at_epoch": 1113,
        "meta_bstar": 0,
        "meta_mean_motion_dot": 7.1e-07,
        "meta_mean_motion_ddot": 0,
        "tle_line1": "1 54259U 22157A   25344.26503120  .00000071  00000+0  00000+0 0  9995",
        "tle_line2": "2 54259   0.0611  99.1185 0000784  70.4001  15.1099  1.00269412 11135"
      },
      "geometry": {
        "type": "Point",
        "coordinates": [
          42.26387756026431,
          -0.031491597572913275
        ]
      }
    },
    {
      "type": "Feature",
      "properties": {
        "norad_id": 59346,
        "name": "EUTELSAT 36D",
        "group": "eutelsat",
        "lat": 0.03530164967610389,
        "lon": 68.15143532839508,
        "alt_km": 35786.88113155472,
        "timestamp": "2025-12-10T20:49:52.232449+00:00",
        "meta_object_name": "EUTELSAT 36D",
        "meta_object_id": "2024-059A",
        "meta_epoch": "2025-12-10T04:48:38.703744",
        "meta_mean_motion": 1.00268969,
        "meta_eccentricity": 4.97e-05,
        "meta_inclination": 0.0175,
        "meta_ra_of_asc_node": 352.6536,
        "meta_arg_of_pericenter": 342.7613,
        "meta_mean_anomaly": 211.7763,
        "meta_ephemeris_type": 0,
        "meta_classification_type": "U",
        "meta_norad_cat_id": 59346,
        "meta_element_set_no": 999,
        "meta_rev_at_epoch": 625,
        "meta_bstar": 0,
        "meta_mean_motion_dot": 0,
        "meta_mean_motion_ddot": 0,
        "tle_line1": "1 59346U 24059A   25344.20044796  .00000000  00000+0  00000+0 0  9995",
        "tle_line2": "2 59346   0.0175 352.6536 0000497 342.7613 211.7763  1.00268969  6259"
      },
      "geometry": {
        "type": "Point",
        "coordinates": [
          68.15143532839508,
          0.03530164967610389
        ]
      }
    }
  ]
}